0 COSMOS 397 DEB
1 05222U 71015AW  13282.60814552  .00002946  00000-0  10029-2 0  6499
2 05222 065.7287 346.2574 0739342 244.9403 242.3467 13.42240719 36351
0 COSMOS 397 DEB
1 05222U 71015AW  13286.16354797  .00003068  00000-0  10430-2 0  6519
2 05222 065.7291 337.8281 0739224 243.3613 142.3834 13.42261870 36833
0 COSMOS 397 DEB
1 05222U 71015AW  13287.53180007  .00002944  00000-0  10026-2 0  6526
2 05222 065.7285 334.5833 0739134 242.7495 273.9863 13.42268389 37010
0 COSMOS 397 DEB
1 05222U 71015AW  13289.53693470  .00003778  00000-0  12768-2 0  6533
2 05222 065.7285 329.8286 0739104 241.8618 243.1719 13.42283169 37284
0 COSMOS 397 DEB
1 05222U 71015AW  13291.16321186  .00002826  00000-0  96368-3 0  6540
2 05222 065.7273 325.9718 0738997 241.1451 181.7137 13.42294100 37508
0 COSMOS 397 DEB
1 05222U 71015AW  13292.52428788  .00003290  00000-0  11167-2 0  6557
2 05222 065.7271 322.7437 0738929 240.5462 278.7922 13.42300086 37688
0 COSMOS 397 DEB
1 05222U 71015AW  13293.57028863  .00002738  00000-0  93523-3 0  6567
2 05222 065.7270 320.2627 0738841 240.0833 293.3676 13.42307382 37822
0 COSMOS 397 DEB
1 05222U 71015AW  13295.18722174  .00003371  00000-0  11438-2 0  6571
2 05222 065.7272 316.4276 0738735 239.3673 186.9018 13.42314540 38042
